NORAD_CAT_ID,OBJECT_NAME,OBJECT_TYPE,EPOCH,MEAN_MOTION,ECCENTRICITY,INCLINATION,RA_OF_ASC_NODE,ARG_OF_PERICENTER,MEAN_ANOMALY,BSTAR,MEAN_MOTION_DOT,MEAN_MOTION_DDOT,TLE_LINE0,TLE_LINE1,TLE_LINE2,SEMIMAJOR_AXIS,PERIOD,APOGEE,PERIGEE,DECAYED
52611.0,STARLINK-3980,PAYLOAD,2022-10-10 16:53:02,15.0884538,0.0001781999999999,53.2158,117.5611,46.6492,313.4649,0.00016363,2.317e-05,0.0,0 STARLINK-3980,1 52611U 22052P   22283.70350580  .00002317  00000-0  16363-3 0  9996,2 52611  53.2158 117.5611 0001782  46.6492 313.4649 15.08845380 23054,6917.864000000001,95.437,540.962,538.496,0.0
52611.0,STARLINK-3980,PAYLOAD,2022-10-10 20:03:48,15.08849233,0.0001792,53.2157,116.9665,47.2711,312.8432,0.00021645,3.159e-05,0.0,0 STARLINK-3980,1 52611U 22052P   22283.83598365  .00003159  00000-0  21645-3 0  9999,2 52611  53.2157 116.9665 0001792  47.2711 312.8432 15.08849233 22702,6917.852,95.437,540.957,538.477,0.0
52611.0,STARLINK-3980,PAYLOAD,2022-10-11 11:57:41,15.08825855,0.000176,53.216,113.9927,47.3372,312.7769,-0.00010867,-2.016e-05,0.0,0 STARLINK-3980,1 52611U 22052P   22284.49839514 -.00002016  00000-0 -10867-3 0  9993,2 52611  53.2160 113.9927 0001760  47.3372 312.7769 15.08825855 23171,6917.924,95.438,541.006,538.571,0.0
52611.0,STARLINK-3980,PAYLOAD,2022-10-11 15:08:28,15.08824474,0.0001794,53.2172,113.3989,45.2351,314.8786,-1.6202000000000002e-05,-5.46e-06,0.0,0 STARLINK-3980,1 52611U 22052P   22284.63088203 -.00000546  00000-0 -16202-4 0  9996,2 52611  53.2172 113.3989 0001794  45.2351 314.8786 15.08824474 22826,6917.928000000001,95.439,541.034,538.552,0.0
52611.0,STARLINK-3980,PAYLOAD,2022-10-12 08:37:41,15.08847031,0.0001534,53.2172,110.1259,55.2823,304.8313,-0.00016007,-2.835e-05,0.0,0 STARLINK-3980,1 52611U 22052P   22285.35951326 -.00002835  00000-0 -16007-3 0  9996,2 52611  53.2172 110.1259 0001534  55.2823 304.8313 15.08847031 23301,6917.859,95.437,540.785,538.663,0.0
52611.0,STARLINK-3980,PAYLOAD,2022-10-12 11:48:28,15.08836576,0.0001675999999999,53.2171,109.5318,50.1889,309.925,4.0525e-05,3.57e-06,0.0,0 STARLINK-3980,1 52611U 22052P   22285.49199543  .00000357  00000-0  40525-4 0  9994,2 52611  53.2171 109.5318 0001676  50.1889 309.9250 15.08836576 22959,6917.891,95.438,540.915,538.596,0.0
52611.0,STARLINK-3980,PAYLOAD,2022-10-12 14:59:14,15.08838232,0.0001669,53.2172,108.937,50.9839,309.1302,5.1939e-05,5.39e-06,0.0,0 STARLINK-3980,1 52611U 22052P   22285.62447428  .00000539  00000-0  51939-4 0  9990,2 52611  53.2172 108.9370 0001669  50.9839 309.1302 15.08838232 22979,6917.886,95.438,540.905,538.596,0.0
52611.0,STARLINK-3980,PAYLOAD,2022-10-13 11:39:15,15.08837287,0.000188,53.2173,105.072,45.8466,314.268,0.00020043,2.903e-05,0.0,0 STARLINK-3980,1 52611U 22052P   22286.48559160  .00002903  00000-0  20043-3 0  9990,2 52611  53.2173 105.0720 0001880  45.8466 314.2680 15.08837287 23472,6917.889,95.438,541.054,538.453,0.0
52611.0,STARLINK-3980,PAYLOAD,2022-10-13 18:00:48,15.0883367,0.0001801,53.2173,103.8824,47.9973,312.1172,0.00015985,2.256e-05,0.0,0 STARLINK-3980,1 52611U 22052P   22286.75055713  .00002256  00000-0  15985-3 0  9995,2 52611  53.2173 103.8824 0001801  47.9973 312.1172 15.08833670 23141,6917.9,95.438,541.011,538.519,0.0
52611.0,STARLINK-3980,PAYLOAD,2022-10-14 11:30:02,15.08847241,0.0001972,53.2168,100.6117,44.4518,315.6632,0.00012615,1.7199999999999998e-05,0.0,0 STARLINK-3980,1 52611U 22052P   22287.47918985  .00001720  00000-0  12615-3 0  9996,2 52611  53.2168 100.6117 0001972  44.4518 315.6632 15.08847241 23622,6917.858,95.437,541.087,538.359,0.0
52611.0,STARLINK-3980,PAYLOAD,2022-10-14 17:51:35,15.08839915,0.0002000999999999,53.2155,99.4203,52.1997,307.9176,8.539200000000001e-05,1.071e-05,0.0,0 STARLINK-3980,1 52611U 22052P   22287.74415539  .00001071  00000-0  85392-4 0  9995,2 52611  53.2155  99.4203 0002001  52.1997 307.9176 15.08839915 23660,6917.880999999999,95.438,541.13,538.361,0.0
52611.0,STARLINK-3980,PAYLOAD,2022-10-15 06:34:40,15.08838503,0.0001748,53.2173,97.0423,47.7006,312.4134,4.8384e-05,4.82e-06,0.0,0 STARLINK-3980,1 52611U 22052P   22288.27407529  .00000482  00000-0  48384-4 0  9999,2 52611  53.2173  97.0423 0001748  47.7006 312.4134 15.08838503 23371,6917.885,95.438,540.9590000000002,538.5409999999998,0.0
52611.0,STARLINK-3980,PAYLOAD,2022-10-15 17:42:22,15.08832449,0.0001848,53.2177,94.961,44.3716,315.7424,-5.4059e-05,-1.148e-05,0.0,0 STARLINK-3980,1 52611U 22052P   22288.73776426 -.00001148  00000-0 -54059-4 0  9993,2 52611  53.2177  94.9610 0001848  44.3716 315.7424 15.08832449 23811,6917.903,95.438,541.047,538.49,0.0
52611.0,STARLINK-3980,PAYLOAD,2022-10-16 06:25:27,15.08834212,0.0001774999999999,53.2178,92.5822,44.5763,315.5372,6.0139e-05,6.69e-06,0.0,0 STARLINK-3980,1 52611U 22052P   22289.26767935  .00000669  00000-0  60139-4 0  9998,2 52611  53.2178  92.5822 0001775  44.5763 315.5372 15.08834212 23522,6917.898,95.438,540.991,538.535,0.0
52611.0,STARLINK-3980,PAYLOAD,2022-10-16 17:33:08,15.08868512,0.000212,53.2178,90.5006,45.5018,314.6147,-0.00026609,-4.524e-05,0.0,0 STARLINK-3980,1 52611U 22052P   22289.73134574 -.00004524  00000-0 -26609-3 0  9996,2 52611  53.2178  90.5006 0002120  45.5018 314.6147 15.08868512 23590,6917.793000000002,95.436,541.125,538.192,0.0
52611.0,STARLINK-3980,PAYLOAD,2022-10-16 20:43:55,15.08844813,0.0001942,53.2178,89.9061,44.8775,315.2374,5.5189e-05,5.9e-06,0.0,0 STARLINK-3980,1 52611U 22052P   22289.86383340  .00000590  00000-0  55189-4 0  9990,2 52611  53.2178  89.9061 0001942  44.8775 315.2374 15.08844813 23986,6917.866,95.437,541.0740000000002,538.387,0.0
52611.0,STARLINK-3980,PAYLOAD,2022-10-17 11:02:24,15.08828908,0.0001996,53.2179,87.2299,47.3795,312.7365,7.8446e-05,9.6e-06,0.0,0 STARLINK-3980,1 52611U 22052P   22290.46000365  .00000960  00000-0  78446-4 0  9993,2 52611  53.2179  87.2299 0001996  47.3795 312.7365 15.08828908 23709,6917.9140000000025,95.438,541.16,538.398,0.0
52611.0,STARLINK-3980,PAYLOAD,2022-10-17 15:48:33,15.088313,0.0002000999999999,53.2179,86.3376,46.8772,313.2388,9.128e-05,1.165e-05,0.0,0 STARLINK-3980,1 52611U 22052P   22290.65872264  .00001165  00000-0  91280-4 0  9998,2 52611  53.2179  86.3376 0002001  46.8772 313.2388 15.08831300 24108,6917.906999999997,95.438,541.156,538.388,0.0
52611.0,STARLINK-3980,PAYLOAD,2022-10-17 17:23:56,15.0883557,0.0002004,53.2179,86.0402,47.3017,312.8144,0.00012637,1.723e-05,0.0,0 STARLINK-3980,1 52611U 22052P   22290.72495942  .00001723  00000-0  12637-3 0  9998,2 52611  53.2179  86.0402 0002004  47.3017 312.8144 15.08835570 23743,6917.894,95.438,541.145,538.373,0.0
52611.0,STARLINK-3980,PAYLOAD,2022-10-18 06:07:01,15.08840964,0.0001911999999999,53.2176,83.6606,50.3601,309.756,6.018e-05,6.7e-06,0.0,0 STARLINK-3980,1 52611U 22052P   22291.25487793  .00000670  00000-0  60180-4 0  9999,2 52611  53.2176  83.6606 0001912  50.3601 309.7560 15.08840964 24199,6917.877,95.437,541.065,538.42,0.0
52611.0,STARLINK-3980,PAYLOAD,2022-10-18 10:53:11,15.08839347,0.0001976,53.2178,82.7694,47.1469,312.9689,-1.8936e-07,-2.91e-06,0.0,0 STARLINK-3980,1 52611U 22052P   22291.45360120 -.00000291  00000-0 -18936-6 0  9990,2 52611  53.2178  82.7694 0001976  47.1469 312.9689 15.08839347 23857,6917.882,95.438,541.114,538.38,0.0
52611.0,STARLINK-3980,PAYLOAD,2022-10-18 17:14:43,15.08843144,0.0001995,53.2179,81.5804,43.9451,316.17,3.2168e-05,2.24e-06,0.0,0 STARLINK-3980,1 52611U 22052P   22291.71855783  .00000224  00000-0  32168-4 0  9998,2 52611  53.2179  81.5804 0001995  43.9451 316.1700 15.08843144 23898,6917.871,95.437,541.116,538.356,0.0
52611.0,STARLINK-3980,PAYLOAD,2022-10-19 05:57:49,15.08828004,0.0002044,53.2186,79.2029,43.4636,316.6517,-2.611800000000001e-05,-7.04e-06,0.0,0 STARLINK-3980,1 52611U 22052P   22292.24849082 -.00000704  00000-0 -26118-4 0  9995,2 52611  53.2186  79.2029 0002044  43.4636 316.6517 15.08828004 24345,6917.917,95.438,541.196,538.368,0.0
52611.0,STARLINK-3980,PAYLOAD,2022-10-19 12:19:21,15.08838508,0.0002031,53.2184,78.0135,42.2171,317.8977,-4.6489e-05,-1.028e-05,0.0,0 STARLINK-3980,1 52611U 22052P   22292.51344701 -.00001028  00000-0 -46489-4 0  9996,2 52611  53.2184  78.0135 0002031  42.2171 317.8977 15.08838508 24012,6917.885,95.438,541.155,538.345,0.0
52611.0,STARLINK-3980,PAYLOAD,2022-10-19 17:05:31,15.08833572,0.0002000999999999,53.2189,77.1213,42.2449,317.8697,4.4064e-05,4.13e-06,0.0,0 STARLINK-3980,1 52611U 22052P   22292.71216652  .00000413  00000-0  44064-4 0  9993,2 52611  53.2189  77.1213 0002001  42.2449 317.8697 15.08833572 24047,6917.9,95.438,541.149,538.381,0.0
52611.0,STARLINK-3980,PAYLOAD,2022-10-20 08:59:21,15.08844046,0.0002015,53.2185,74.1465,39.1059,321.0079,0.00010471,1.379e-05,0.0,0 STARLINK-3980,1 52611U 22052P   22293.37455732  .00001379  00000-0  10471-3 0  9996,2 52611  53.2185  74.1465 0002015  39.1059 321.0079 15.08844046 24517,6917.868,95.437,541.127,538.339,0.0
52611.0,STARLINK-3980,PAYLOAD,2022-10-20 12:10:07,15.08846492,0.0002002,53.2185,73.55199999999998,41.8766,318.2379,0.00012442,1.693e-05,0.0,0 STARLINK-3980,1 52611U 22052P   22293.50703475  .00001693  00000-0  12442-3 0  9990,2 52611  53.2185  73.5520 0002002  41.8766 318.2379 15.08846492 24162,6917.861,95.437,541.111,538.341,0.0
52611.0,STARLINK-3980,PAYLOAD,2022-10-21 07:14:46,15.08836529,0.0001936,53.2187,69.9835,42.6481,317.4661,4.9714e-05,5.03e-06,0.0,0 STARLINK-3980,1 52611U 22052P   22294.30192293  .00000503  00000-0  49714-4 0  9991,2 52611  53.2187  69.9835 0001936  42.6481 317.4661 15.08836529 24659,6917.891,95.438,541.095,538.4169999999998,0.0
52611.0,STARLINK-3980,PAYLOAD,2022-10-21 12:00:55,15.08832734,0.0001931,53.2188,69.0914,42.0937,318.0203,1.069e-05,-1.18e-06,0.0,0 STARLINK-3980,1 52611U 22052P   22294.50064676 -.00000118  00000-0  10690-4 0  9990,2 52611  53.2188  69.0914 0001931  42.0937 318.0203 15.08832734 24310,6917.903,95.438,541.1030000000002,538.432,0.0
